STARLINK-34135          
1 63964U 25099N   26068.33890482  .00023699  00000+0  86768-3 0  9998
2 63964  43.0012 178.1170 0002095 282.0487  78.0130 15.27590381 47283
REAL                    
1 64875U 25154G   26068.72233414  .00022901  00000+0  82904-3 0  9994
2 64875  97.4133 137.2581 0001853 118.5876 241.5550 15.28408058 34830
